GLOBALSTAR M045         
1 25676U 99019A   25259.58270845 -.00000072  00000+0  18766-3 0  9996
2 25676  51.9986  44.7693 0000990  84.6457 354.9779 12.27065968204614
GLOBALSTAR M019         
1 25677U 99019B   25259.52680874 -.00000068  00000+0  22690-3 0  9994
2 25677  51.9873 181.7246 0001326 116.2547  54.9812 12.13877371196239
GLOBALSTAR M044         
1 25678U 99019C   25259.40625786 -.00000006  00000+0  10864-2 0  9994
2 25678  51.9956 144.8332 0005420 213.4090 317.2549 11.90258446182181
GLOBALSTAR M042         
1 25679U 99019D   25259.44684567 -.00000066  00000+0  24937-3 0  9994
2 25679  52.0003 153.3257 0003357 115.0384  56.4045 12.22087448196410
GLOBALSTAR M025         
1 25770U 99031A   25259.59600087 -.00000067  00000+0  14088-4 0  9999
2 25770  51.9829 307.5196 0001883 296.4984 203.6919 11.22558954491972
GLOBALSTAR M049         
1 25771U 99031B   25259.48891288  .00000034  00000+0  34528-2 0  9995
2 25771  51.9922 347.1189 0003231 161.3496 198.7420 11.12121181127587
GLOBALSTAR M047         
1 25772U 99031C   25259.45940693 -.00000057  00000+0  35980-3 0  9998
2 25772  51.9869 335.4352 0016568  60.7756 299.4704 11.31929542481448
GLOBALSTAR M052         
1 25773U 99031D   25259.33380832 -.00000099  00000+0 -11171-2 0  9991
2 25773  51.9847  94.8582 0002400 345.8195 185.6102 11.15060774488675
